start=new Date('2023-06-27T00:00:00.000Z').valueOf();
sats=[{"REF_FRAME":"TEME","EPOCH":"2023-06-25T20:40:57.529344","BSTAR":"0.00006597500000","CLASSIFICATION_TYPE":"U","TLE_LINE2":"2 52569  53.2145 233.6515 0000797  70.2819 289.8259 15.08838901 62525","FILE":"3943111","RA_OF_ASC_NODE":"233.6515","PERIOD":"95.438","MEAN_MOTION":"15.08838901","ARG_OF_PERICENTER":"70.2819","ELEMENT_SET_NO":"999","OBJECT_NAME":"STARLINK-3927","MEAN_ANOMALY":"289.8259","NORAD_CAT_ID":"52569","DECAY_DATE":null,"REV_AT_EPOCH":"6252","TLE_LINE1":"1 52569U 22051AN  23176.86177696  .00000762  00000-0  65975-4 0  9997","OBJECT_TYPE":"PAYLOAD","CENTER_NAME":"EARTH","LAUNCH_DATE":"2022-05-13","SITE":"AFWTR","PERIAPSIS":"539.197","MEAN_MOTION_DOT":"0.00000762","SEMIMAJOR_AXIS":"6917.884","TIME_SYSTEM":"UTC","APOAPSIS":"540.300","ECCENTRICITY":"0.00007970","GP_ID":"234560986","MEAN_ELEMENT_THEORY":"SGP4","MEAN_MOTION_DDOT":"0.0000000000000","OBJECT_ID":"2022-051AN","INCLINATION":"53.2145","EPHEMERIS_TYPE":"0","RCS_SIZE":"LARGE","COUNTRY_CODE":"US"},{"ELEMENT_SET_NO":"999","ARG_OF_PERICENTER":"84.6879","OBJECT_NAME":"STARLINK-3924","MEAN_ANOMALY":"275.4233","NORAD_CAT_ID":"52570","DECAY_DATE":null,"PERIOD":"95.438","MEAN_MOTION":"15.08830951","EPOCH":"2023-06-26T09:08:09.456864","BSTAR":"0.00000911830000","CLASSIFICATION_TYPE":"U","RA_OF_ASC_NODE":"231.3228","TLE_LINE2":"2 52570  53.2153 231.3228 0001049  84.6879 275.4233 15.08830951 62607","FILE":"3943413","REF_FRAME":"TEME","EPHEMERIS_TYPE":"0","RCS_SIZE":"LARGE","COUNTRY_CODE":"US","GP_ID":"234567953","MEAN_MOTION_DDOT":"0.0000000000000","MEAN_ELEMENT_THEORY":"SGP4","OBJECT_ID":"2022-051AP","INCLINATION":"53.2153","SITE":"AFWTR","PERIAPSIS":"539.047","MEAN_MOTION_DOT":"-0.00000143","TIME_SYSTEM":"UTC","SEMIMAJOR_AXIS":"6917.908","APOAPSIS":"540.499","ECCENTRICITY":"0.00010490","REV_AT_EPOCH":"6260","TLE_LINE1":"1 52570U 22051AP  23177.38066501 -.00000143  00000-0  91183-5 0  9994","OBJECT_TYPE":"PAYLOAD","CENTER_NAME":"EARTH","LAUNCH_DATE":"2022-05-13"},{"EPOCH":"2023-06-26T09:18:45.389376","BSTAR":"0.00003377900000","CLASSIFICATION_TYPE":"U","RA_OF_ASC_NODE":"231.2923","TLE_LINE2":"2 52574  53.2167 231.2923 0001185  93.2219 266.8908 15.08831937 62600","FILE":"3943413","REF_FRAME":"TEME","ARG_OF_PERICENTER":"93.2219","ELEMENT_SET_NO":"999","OBJECT_NAME":"STARLINK-3901","MEAN_ANOMALY":"266.8908","NORAD_CAT_ID":"52574","DECAY_DATE":null,"PERIOD":"95.438","MEAN_MOTION":"15.08831937","SITE":"AFWTR","PERIAPSIS":"538.950","MEAN_MOTION_DOT":"0.00000250","TIME_SYSTEM":"UTC","SEMIMAJOR_AXIS":"6917.905","APOAPSIS":"540.590","ECCENTRICITY":"0.00011850","REV_AT_EPOCH":"6260","TLE_LINE1":"1 52574U 22051AQ  23177.38802534  .00000250  00000-0  33779-4 0  9996","OBJECT_TYPE":"PAYLOAD","CENTER_NAME":"EARTH","LAUNCH_DATE":"2022-05-13","EPHEMERIS_TYPE":"0","RCS_SIZE":"LARGE","COUNTRY_CODE":"US","GP_ID":"234567678","MEAN_ELEMENT_THEORY":"SGP4","MEAN_MOTION_DDOT":"0.0000000000000","OBJECT_ID":"2022-051AQ","INCLINATION":"53.2167"},{"DECAY_DATE":null,"MEAN_ANOMALY":"277.0612","NORAD_CAT_ID":"52575","OBJECT_NAME":"STARLINK-3920","ELEMENT_SET_NO":"999","ARG_OF_PERICENTER":"83.0497","MEAN_MOTION":"15.08840570","PERIOD":"95.438","FILE":"3943687","TLE_LINE2":"2 52575  53.2159 230.4469 0001031  83.0497 277.0612 15.08840570 62635","RA_OF_ASC_NODE":"230.4469","CLASSIFICATION_TYPE":"U","BSTAR":"0.00002078600000","EPOCH":"2023-06-26T13:49:00.330528","REF_FRAME":"TEME","COUNTRY_CODE":"US","RCS_SIZE":"LARGE","EPHEMERIS_TYPE":"0","INCLINATION":"53.2159","OBJECT_ID":"2022-051AR","MEAN_ELEMENT_THEORY":"SGP4","MEAN_MOTION_DDOT":"0.0000000000000","GP_ID":"234574360","APOAPSIS":"540.457","ECCENTRICITY":"0.00010310","SEMIMAJOR_AXIS":"6917.879","TIME_SYSTEM":"UTC","MEAN_MOTION_DOT":"0.00000043","PERIAPSIS":"539.030","SITE":"AFWTR","CENTER_NAME":"EARTH","LAUNCH_DATE":"2022-05-13","OBJECT_TYPE":"PAYLOAD","REV_AT_EPOCH":"6263","TLE_LINE1":"1 52575U 22051AR  23177.57569827  .00000043  00000-0  20786-4 0  9997"},{"ECCENTRICITY":"0.00011990","APOAPSIS":"540.576","TIME_SYSTEM":"UTC","SEMIMAJOR_AXIS":"6917.882","PERIAPSIS":"538.918","MEAN_MOTION_DOT":"0.00001092","SITE":"AFWTR","CENTER_NAME":"EARTH","LAUNCH_DATE":"2022-05-13","TLE_LINE1":"1 52576U 22051AS  23177.37057613  .00001092  00000-0  86695-4 0  9997","REV_AT_EPOCH":"6260","OBJECT_TYPE":"PAYLOAD","RCS_SIZE":"LARGE","COUNTRY_CODE":"US","EPHEMERIS_TYPE":"0","INCLINATION":"53.2160","OBJECT_ID":"2022-051AS","MEAN_ELEMENT_THEORY":"SGP4","MEAN_MOTION_DDOT":"0.0000000000000","GP_ID":"234567950","FILE":"3943413","TLE_LINE2":"2 52576  53.2160 231.3686 0001199  98.7658 261.3470 15.08839473 62601","RA_OF_ASC_NODE":"231.3686","CLASSIFICATION_TYPE":"U","BSTAR":"0.00008669500000","EPOCH":"2023-06-26T08:53:37.777632","REF_FRAME":"TEME","DECAY_DATE":null,"NORAD_CAT_ID":"52576","MEAN_ANOMALY":"261.3470","OBJECT_NAME":"STARLINK-3932","ARG_OF_PERICENTER":"98.7658","ELEMENT_SET_NO":"999","PERIOD":"95.438","MEAN_MOTION":"15.08839473"},{"CENTER_NAME":"EARTH","LAUNCH_DATE":"2022-05-13","REV_AT_EPOCH":"6232","TLE_LINE1":"1 52577U 22051AT  23176.89167560 -.00000612  00000-0 -20402-4 0  9990","OBJECT_TYPE":"PAYLOAD","ECCENTRICITY":"0.00010210","APOAPSIS":"540.452","SEMIMAJOR_AXIS":"6917.881","TIME_SYSTEM":"UTC","PERIAPSIS":"539.039","MEAN_MOTION_DOT":"-0.00000612","SITE":"AFWTR","INCLINATION":"53.2158","OBJECT_ID":"2022-051AT","MEAN_ELEMENT_THEORY":"SGP4","MEAN_MOTION_DDOT":"0.0000000000000","GP_ID":"234560968","RCS_SIZE":"LARGE","COUNTRY_CODE":"US","EPHEMERIS_TYPE":"0","REF_FRAME":"TEME","TLE_LINE2":"2 52577  53.2158 248.5182 0001021  75.5075 284.6030 15.08839909 62323","FILE":"3943110","RA_OF_ASC_NODE":"248.5182","CLASSIFICATION_TYPE":"U","BSTAR":"-0.00002040200000","EPOCH":"2023-06-25T21:24:00.771840","PERIOD":"95.438","MEAN_MOTION":"15.08839909","DECAY_DATE":null,"MEAN_ANOMALY":"284.6030","NORAD_CAT_ID":"52577","OBJECT_NAME":"STARLINK-3836","ARG_OF_PERICENTER":"75.5075","ELEMENT_SET_NO":"999"},{"REF_FRAME":"TEME","FILE":"3943413","TLE_LINE2":"2 52578  53.2165 246.1218 0001065  92.7427 267.3687 15.08836185 62404","RA_OF_ASC_NODE":"246.1218","CLASSIFICATION_TYPE":"U","BSTAR":"0.00002393700000","EPOCH":"2023-06-26T10:12:24.110784","MEAN_MOTION":"15.08836185","PERIOD":"95.438","DECAY_DATE":null,"NORAD_CAT_ID":"52578","MEAN_ANOMALY":"267.3687","OBJECT_NAME":"STARLINK-3833","ARG_OF_PERICENTER":"92.7427","ELEMENT_SET_NO":"999","LAUNCH_DATE":"2022-05-13","CENTER_NAME":"EARTH","OBJECT_TYPE":"PAYLOAD","TLE_LINE1":"1 52578U 22051AU  23177.42527906  .00000093  00000-0  23937-4 0  9992","REV_AT_EPOCH":"6240","ECCENTRICITY":"0.00010650","APOAPSIS":"540.494","TIME_SYSTEM":"UTC","SEMIMAJOR_AXIS":"6917.892","MEAN_MOTION_DOT":"0.00000093","PERIAPSIS":"539.020","SITE":"AFWTR","INCLINATION":"53.2165","OBJECT_ID":"2022-051AU","MEAN_ELEMENT_THEORY":"SGP4","MEAN_MOTION_DDOT":"0.0000000000000","GP_ID":"234567946","COUNTRY_CODE":"US","RCS_SIZE":"LARGE","EPHEMERIS_TYPE":"0"},{"PERIAPSIS":"539.013","MEAN_MOTION_DOT":"0.00001274","SITE":"AFWTR","ECCENTRICITY":"0.00010650","APOAPSIS":"540.487","TIME_SYSTEM":"UTC","SEMIMAJOR_AXIS":"6917.885","CENTER_NAME":"EARTH","LAUNCH_DATE":"2022-05-13","REV_AT_EPOCH":"6240","TLE_LINE1":"1 52579U 22051AV  23177.41423949  .00001274  00000-0  98135-4 0  9998","OBJECT_TYPE":"PAYLOAD","EPHEMERIS_TYPE":"0","RCS_SIZE":"LARGE","COUNTRY_CODE":"US","MEAN_ELEMENT_THEORY":"SGP4","MEAN_MOTION_DDOT":"0.0000000000000","GP_ID":"234567680","INCLINATION":"53.2155","OBJECT_ID":"2022-051AV","BSTAR":"0.00009813500000","EPOCH":"2023-06-26T09:56:30.291936","TLE_LINE2":"2 52579  53.2155 246.1692 0001065  98.3767 261.7346 15.08838504 62406","RA_OF_ASC_NODE":"246.1692","FILE":"3943413","CLASSIFICATION_TYPE":"U","REF_FRAME":"TEME","OBJECT_NAME":"STARLINK-3893","ELEMENT_SET_NO":"999","ARG_OF_PERICENTER":"98.3767","DECAY_DATE":null,"MEAN_ANOMALY":"261.7346","NORAD_CAT_ID":"52579","PERIOD":"95.438","MEAN_MOTION":"15.08838504"},{"REF_FRAME":"TEME","RA_OF_ASC_NODE":"248.5406","TLE_LINE2":"2 52580  53.2170 248.5406 0000766  70.4982 289.6093 15.08840200 62326","FILE":"3943110","CLASSIFICATION_TYPE":"U","BSTAR":"0.00001534900000","EPOCH":"2023-06-25T21:20:05.799264","PERIOD":"95.438","MEAN_MOTION":"15.08840200","DECAY_DATE":null,"MEAN_ANOMALY":"289.6093","NORAD_CAT_ID":"52580","OBJECT_NAME":"STARLINK-3919","ELEMENT_SET_NO":"999","ARG_OF_PERICENTER":"70.4982","LAUNCH_DATE":"2022-05-13","CENTER_NAME":"EARTH","TLE_LINE1":"1 52580U 22051AW  23176.88895601 -.00000043  00000-0  15349-4 0  9998","REV_AT_EPOCH":"6232","OBJECT_TYPE":"PAYLOAD","ECCENTRICITY":"0.00007660","APOAPSIS":"540.275","TIME_SYSTEM":"UTC","SEMIMAJOR_AXIS":"6917.880","PERIAPSIS":"539.215","MEAN_MOTION_DOT":"-0.00000043","SITE":"AFWTR","INCLINATION":"53.2170","OBJECT_ID":"2022-051AW","MEAN_ELEMENT_THEORY":"SGP4","MEAN_MOTION_DDOT":"0.0000000000000","GP_ID":"234560465","RCS_SIZE":"LARGE","COUNTRY_CODE":"US","EPHEMERIS_TYPE":"0"},{"SITE":"AFWTR","MEAN_MOTION_DOT":"-0.00000518","PERIAPSIS":"539.019","SEMIMAJOR_AXIS":"6917.884","TIME_SYSTEM":"UTC","APOAPSIS":"540.480","ECCENTRICITY":"0.00010560","OBJECT_TYPE":"PAYLOAD","TLE_LINE1":"1 52581U 22051AX  23177.36594097 -.00000518  00000-0 -14481-4 0  9992","REV_AT_EPOCH":"6260","CENTER_NAME":"EARTH","LAUNCH_DATE":"2022-05-13","EPHEMERIS_TYPE":"0","COUNTRY_CODE":"US","RCS_SIZE":"LARGE","GP_ID":"234567948","MEAN_ELEMENT_THEORY":"SGP4","MEAN_MOTION_DDOT":"0.0000000000000","OBJECT_ID":"2022-051AX","INCLINATION":"53.2157","EPOCH":"2023-06-26T08:46:57.299808","BSTAR":"-0.00001448100000","CLASSIFICATION_TYPE":"U","TLE_LINE2":"2 52581  53.2157 231.3879 0001056  91.4564 268.6549 15.08838791 62604","RA_OF_ASC_NODE":"231.3879","FILE":"3943413","REF_FRAME":"TEME","ELEMENT_SET_NO":"999","ARG_OF_PERICENTER":"91.4564","OBJECT_NAME":"STARLINK-3915","NORAD_CAT_ID":"52581","MEAN_ANOMALY":"268.6549","DECAY_DATE":null,"MEAN_MOTION":"15.08838791","PERIOD":"95.438"}];
